OBJECT_NAME,OBJECT_ID,EPOCH,MEAN_MOTION,ECCENTRICITY,INCLINATION,RA_OF_ASC_NODE,ARG_OF_PERICENTER,MEAN_ANOMALY,EPHEMERIS_TYPE,CLASSIFICATION_TYPE,NORAD_CAT_ID,ELEMENT_SET_NO,REV_AT_EPOCH,BSTAR,MEAN_MOTION_DOT,MEAN_MOTION_DDOT
TRITON-1,2013-066M,2026-07-13T07:04:11.789760,14.81789636,.00904275,97.8227,103.5057,148.2519,212.4191,0,U,39427,999,67795,.85356285E-4,.666E-5,0
GOMX-1,2013-066Q,2026-07-13T06:21:13.320864,14.69539924,.01284572,97.6476,33.0821,354.4286,5.5484,0,U,39430,999,67374,.12783247E-3,.808E-5,0
CUBEBUG-2 (LO-74),2013-066AA,2026-07-13T07:40:33.340512,14.93959309,.0055889,97.8910,143.4139,301.7151,57.8628,0,U,39440,999,68089,.18121969E-3,.1926E-4,0
NEE-02 KRYSAOR,2013-066AB,2026-07-13T06:08:54.251808,14.86734124,.00656004,97.8898,133.2874,345.6717,14.2636,0,U,39441,999,68007,.14227616E-3,.1256E-4,0
FUNCUBE-1 (AO-73),2013-066AE,2026-07-13T04:07:27.865920,15.09803151,.00380868,97.8287,166.1678,114.1842,246.3375,0,U,39444,999,68358,.22375131E-3,.3608E-4,0
UWE-3,2013-066AG,2026-07-12T19:32:08.748096,14.97190018,.004751,97.8701,150.0656,232.8178,126.8701,0,U,39446,999,68141,.16916257E-3,.1937E-4,0
SMDC ONE 2.4,2013-072H,2026-07-13T05:02:30.192288,15.18772960,.01478779,120.4912,92.5972,46.4304,314.8942,0,U,39469,999,12178,.34695987E-3,.9303E-4,0
COSMOS 2488 (RODNIK-S 7),2013-076A,2026-07-13T06:42:23.861376,12.42906506,.00206411,82.4845,152.4397,41.5288,318.7356,0,U,39483,999,56913,.25734531E-3,.46E-6,0
COSMOS 2489 (RODNIK-S 8),2013-076B,2026-07-13T06:07:28.770240,12.42880094,.0022463,82.4881,153.8420,41.3115,318.9659,0,U,39484,999,56918,-.10149933E-3,-.4E-7,0
COSMOS 2490 (RODNIK-S 9),2013-076C,2026-07-13T07:22:58.007712,12.42879240,.00228347,82.4828,151.8655,56.0482,304.2764,0,U,39485,999,56912,.13358703E-3,.29E-6,0
KAZEOSAT 1,2014-024A,2026-07-13T05:59:02.213952,14.42036498,.00012366,98.3204,266.0468,83.4586,276.6745,0,U,39731,999,64231,-.786664E-6,-.45E-6,0
COSMOS 2496 (RODNIK-S 10),2014-028A,2026-07-13T06:21:44.506944,12.42879093,.00209255,82.4457,92.3989,24.9899,335.2189,0,U,39761,999,55075,-.17112264E-3,-.14E-6,0
COSMOS 2497 (RODNIK-S 11),2014-028B,2026-07-13T07:41:34.947168,12.42894932,.00213921,82.4505,94.0640,19.9478,340.2433,0,U,39762,999,55076,-.96309029E-4,-.3E-7,0
COSMOS 2498 (RODNIK-S 12),2014-028C,2026-07-13T05:10:49.298304,12.42980966,.00221156,82.4466,92.6053,19.7248,340.4682,0,U,39763,999,55078,.46677967E-3,.75E-6,0
HODOYOSHI-4,2014-033B,2026-07-13T07:47:13.395840,14.88184585,.0022552,97.5454,17.8870,216.0678,143.9019,0,U,40011,999,65269,.76473134E-4,.656E-5,0
UNISAT-6,2014-033C,2026-07-12T21:11:28.620960,14.88361311,.00443626,97.7905,346.1482,345.5085,14.4856,0,U,40012,999,64998,.13622749E-3,.1227E-4,0
DEIMOS-2,2014-033D,2026-07-13T05:47:02.373216,14.93790663,.00008514,97.5801,67.8113,91.8660,268.2658,0,U,40013,999,64161,.34991998E-4,.317E-5,0
BUGSAT-1 (TITA),2014-033E,2026-07-13T05:52:21.567648,15.15871127,.00292024,98.0439,288.3221,92.3653,268.0922,0,U,40014,999,65978,.21739459E-3,.4128E-4,0
SAUDISAT 4,2014-033G,2026-07-12T21:14:57.206112,14.79574332,.00444449,97.7614,339.1360,351.6287,8.4179,0,U,40016,999,64987,.41938932E-4,.266E-5,0
APRIZESAT 9,2014-033J,2026-07-13T04:52:30.600480,14.74251105,.00673864,97.9091,326.7703,116.2105,244.6052,0,U,40018,999,64739,.58823072E-4,.351E-5,0
BRITE-CA1 (TORONTO),2014-033L,2026-07-13T07:58:12.799776,14.72720389,.00782963,97.9769,322.7828,192.2372,167.6936,0,U,40020,999,64606,.89506307E-4,.545E-5,0
