TRITON-1                
1 39427U 13066M   26194.29458090  .00000666  00000+0  85356-4 0  9998
2 39427  97.8227 103.5057 0090427 148.2519 212.4191 14.81789636677952
GOMX-1                  
1 39430U 13066Q   26194.26473751  .00000808  00000+0  12783-3 0  9991
2 39430  97.6476  33.0821 0128457 354.4286   5.5484 14.69539924673741
CUBEBUG-2 (LO-74)       
1 39440U 13066AA  26194.31983033  .00001926  00000+0  18122-3 0  9992
2 39440  97.8910 143.4139 0055889 301.7151  57.8628 14.93959309680893
NEE-02 KRYSAOR          
1 39441U 13066AB  26194.25618347  .00001256  00000+0  14228-3 0  9998
2 39441  97.8898 133.2874 0065600 345.6717  14.2636 14.86734124680073
FUNCUBE-1 (AO-73)       
1 39444U 13066AE  26194.17185030  .00003608  00000+0  22375-3 0  9995
2 39444  97.8287 166.1678 0038086 114.1842 246.3375 15.09803151683581
UWE-3                   
1 39446U 13066AG  26193.81399014  .00001937  00000+0  16916-3 0  9993
2 39446  97.8701 150.0656 0047510 232.8178 126.8701 14.97190018681416
SMDC ONE 2.4            
1 39469U 13072H   26194.21007167  .00009303  00000+0  34696-3 0  9995
2 39469 120.4912  92.5972 0147877  46.4304 314.8942 15.18772960121787
COSMOS 2488 (RODNIK-S 7)
1 39483U 13076A   26194.27944284  .00000046  00000+0  25735-3 0  9990
2 39483  82.4845 152.4397 0020641  41.5288 318.7356 12.42906506569134
COSMOS 2489 (RODNIK-S 8)
1 39484U 13076B   26194.25519410 -.00000004  00000+0 -10150-3 0  9999
2 39484  82.4881 153.8420 0022463  41.3115 318.9659 12.42880094569184
COSMOS 2490 (RODNIK-S 9)
1 39485U 13076C   26194.30761583  .00000029  00000+0  13359-3 0  9995
2 39485  82.4828 151.8655 0022834  56.0482 304.2764 12.42879240569126
KAZEOSAT 1              
1 39731U 14024A   26194.24933118 -.00000045  00000+0 -78666-6 0  9996
2 39731  98.3204 266.0468 0001236  83.4586 276.6745 14.42036498642313
COSMOS 2496 (RODNIK-S *)
1 39761U 14028A   26194.26509846 -.00000014  00000+0 -17112-3 0  9994
2 39761  82.4457  92.3989 0020925  24.9899 335.2189 12.42879093550755
COSMOS 2497 (RODNIK-S *)
1 39762U 14028B   26194.32054337 -.00000003  00000+0 -96309-4 0  9996
2 39762  82.4505  94.0640 0021392  19.9478 340.2433 12.42894932550767
COSMOS 2498 (RODNIK-S *)
1 39763U 14028C   26194.21584836  .00000075  00000+0  46678-3 0  9997
2 39763  82.4466  92.6053 0022115  19.7248 340.4682 12.42980966550786
HODOYOSHI-4             
1 40011U 14033B   26194.32446060  .00000656  00000+0  76473-4 0  9991
2 40011  97.5454  17.8870 0022552 216.0678 143.9019 14.88184585652696
UNISAT-6                
1 40012U 14033C   26193.88297015  .00001227  00000+0  13623-3 0  9998
2 40012  97.7905 346.1482 0044362 345.5085  14.4856 14.88361311649983
DEIMOS-2                
1 40013U 14033D   26194.24099969  .00000317  00000+0  34992-4 0  9990
2 40013  97.5801  67.8113 0000851  91.8660 268.2658 14.93790663641613
BUGSAT-1 (TITA)         
1 40014U 14033E   26194.24469407  .00004128  00000+0  21739-3 0  9997
2 40014  98.0439 288.3221 0029202  92.3653 268.0922 15.15871127659785
SAUDISAT 4              
1 40016U 14033G   26193.88538433  .00000266  00000+0  41939-4 0  9998
2 40016  97.7614 339.1360 0044444 351.6287   8.4179 14.79574332649872
APRIZESAT 9             
1 40018U 14033J   26194.20313195  .00000351  00000+0  58823-4 0  9998
2 40018  97.9091 326.7703 0067386 116.2105 244.6052 14.74251105647396
BRITE-CA1 (TORONTO)     
1 40020U 14033L   26194.33209259  .00000545  00000+0  89506-4 0  9997
2 40020  97.9769 322.7828 0078296 192.2372 167.6936 14.72720389646068
